{"type": "FeatureCollection", "features": [ {"type": "Feature", "properties": {"norad_id": 34077, "name": "IRIDIUM 33 DEB", "group": "iridium-33-debris", "lat": -44.212823686713506, "lon": 48.54832810465896, "alt_km": 684.2046349556185, "timestamp": "2025-12-11T10:53:16.273908+00:00", "meta": {"OBJECT_NAME": "IRIDIUM 33 DEB", "OBJECT_ID": "1997-051CL", "EPOCH": "2025-12-11T04:48:57.780864", "MEAN_MOTION": 14.64803377, "ECCENTRICITY": 0.0010385, "INCLINATION": 86.3859, "RA_OF_ASC_NODE": 52.1851, "ARG_OF_PERICENTER": 44.5154, "MEAN_ANOMALY": 18.137, "EPHEMERIS_TYPE": 0, "CLASSIFICATION_TYPE": "U", "NORAD_CAT_ID": 34077, "ELEMENT_SET_NO": 999, "REV_AT_EPOCH": 88310, "BSTAR": 0.0023199, "MEAN_MOTION_DOT": 0.00012414, "MEAN_MOTION_DDOT": 0}, "tle": {"line1": "1 34077U 97051CL  25345.20066876  .00012414  00000+0  23199-2 0  9994", "line2": "2 34077  86.3859  52.1851 0010385  44.5154  18.1370 14.64803377883107"}}, "geometry": {"type": "Point", "coordinates": [48.54832810465896, -44.212823686713506]}}, {"type": "Feature", "properties": {"norad_id": 34079, "name": "IRIDIUM 33 DEB", "group": "iridium-33-debris", "lat": -41.255513783993315, "lon": -167.56787384211, "alt_km": 628.6612150656847, "timestamp": "2025-12-11T10:53:16.273919+00:00", "meta": {"OBJECT_NAME": "IRIDIUM 33 DEB", "OBJECT_ID": "1997-051CN", "EPOCH": "2025-12-11T02:02:18.974976", "MEAN_MOTION": 14.83452608, "ECCENTRICITY": 0.0005837, "INCLINATION": 86.3778, "RA_OF_ASC_NODE": 9.4145, "ARG_OF_PERICENTER": 13.5557, "MEAN_ANOMALY": 39.91, "EPHEMERIS_TYPE": 0, "CLASSIFICATION_TYPE": "U", "NORAD_CAT_ID": 34079, "ELEMENT_SET_NO": 999, "REV_AT_EPOCH": 88953, "BSTAR": 0.0024971, "MEAN_MOTION_DOT": 0.00020578, "MEAN_MOTION_DDOT": 0}, "tle": {"line1": "1 34079U 97051CN  25345.08494184  .00020578  00000+0  24971-2 0  9998", "line2": "2 34079  86.3778   9.4145 0005837  13.5557  39.9100 14.83452608889532"}}, "geometry": {"type": "Point", "coordinates": [-167.56787384211, -41.255513783993315]}}, {"type": "Feature", "properties": {"norad_id": 34088, "name": "IRIDIUM 33 DEB", "group": "iridium-33-debris", "lat": -82.65757250999707, "lon": 1.928230054442374, "alt_km": 601.7500175915884, "timestamp": "2025-12-11T10:53:16.273930+00:00", "meta": {"OBJECT_NAME": "IRIDIUM 33 DEB", "OBJECT_ID": "1997-051CX", "EPOCH": "2025-12-11T03:26:50.826048", "MEAN_MOTION": 14.91253391, "ECCENTRICITY": 0.0005523, "INCLINATION": 86.3845, "RA_OF_ASC_NODE": 31.4571, "ARG_OF_PERICENTER": 182.298, "MEAN_ANOMALY": 230.8134, "EPHEMERIS_TYPE": 0, "CLASSIFICATION_TYPE": "U", "NORAD_CAT_ID": 34088, "ELEMENT_SET_NO": 999, "REV_AT_EPOCH": 88718, "BSTAR": 0.0038535, "MEAN_MOTION_DOT": 0.00038525, "MEAN_MOTION_DDOT": 0}, "tle": {"line1": "1 34088U 97051CX  25345.14364382  .00038525  00000+0  38535-2 0  9993", "line2": "2 34088  86.3845  31.4571 0005523 182.2980 230.8134 14.91253391887186"}}, "geometry": {"type": "Point", "coordinates": [1.928230054442374, -82.65757250999707]}}, {"type": "Feature", "properties": {"norad_id": 34091, "name": "IRIDIUM 33 DEB", "group": "iridium-33-debris", "lat": 33.88179748982473, "lon": -115.04057108431248, "alt_km": 642.7655526713943, "timestamp": "2025-12-11T10:53:16.273941+00:00", "meta": {"OBJECT_NAME": "IRIDIUM 33 DEB", "OBJECT_ID": "1997-051DA", "EPOCH": "2025-12-11T05:21:58.568256", "MEAN_MOTION": 14.81622216, "ECCENTRICITY": 0.0033436, "INCLINATION": 86.3407, "RA_OF_ASC_NODE": 67.5278, "ARG_OF_PERICENTER": 298.8386, "MEAN_ANOMALY": 60.948, "EPHEMERIS_TYPE": 0, "CLASSIFICATION_TYPE": "U", "NORAD_CAT_ID": 34091, "ELEMENT_SET_NO": 999, "REV_AT_EPOCH": 87844, "BSTAR": 0.0076018, "MEAN_MOTION_DOT": 0.00060805, "MEAN_MOTION_DDOT": 0}, "tle": {"line1": "1 34091U 97051DA  25345.22359454  .00060805  00000+0  76018-2 0  9994", "line2": "2 34091  86.3407  67.5278 0033436 298.8386  60.9480 14.81622216878446"}}, "geometry": {"type": "Point", "coordinates": [-115.04057108431248, 33.88179748982473]}}, {"type": "Feature", "properties": {"norad_id": 34097, "name": "IRIDIUM 33 DEB", "group": "iridium-33-debris", "lat": -70.51635485294996, "lon": -167.1987809559355, "alt_km": 808.3915492577089, "timestamp": "2025-12-11T10:53:16.273952+00:00", "meta": {"OBJECT_NAME": "IRIDIUM 33 DEB", "OBJECT_ID": "1997-051DG", "EPOCH": "2025-12-11T01:20:58.856064", "MEAN_MOTION": 14.3475402, "ECCENTRICITY": 0.0082781, "INCLINATION": 86.2006, "RA_OF_ASC_NODE": 2.1506, "ARG_OF_PERICENTER": 7.6829, "MEAN_ANOMALY": 352.5612, "EPHEMERIS_TYPE": 0, "CLASSIFICATION_TYPE": "U", "NORAD_CAT_ID": 34097, "ELEMENT_SET_NO": 999, "REV_AT_EPOCH": 87095, "BSTAR": 0.0020786, "MEAN_MOTION_DOT": 6.141e-05, "MEAN_MOTION_DDOT": 0}, "tle": {"line1": "1 34097U 97051DG  25345.05623676  .00006141  00000+0  20786-2 0  9995", "line2": "2 34097  86.2006   2.1506 0082781   7.6829 352.5612 14.34754020870952"}}, "geometry": {"type": "Point", "coordinates": [-167.1987809559355, -70.51635485294996]}}, {"type": "Feature", "properties": {"norad_id": 34145, "name": "IRIDIUM 33 DEB", "group": "iridium-33-debris", "lat": 53.228206881907916, "lon": 148.0137580949763, "alt_km": 711.2670307710487, "timestamp": "2025-12-11T10:53:16.273964+00:00", "meta": {"OBJECT_NAME": "IRIDIUM 33 DEB", "OBJECT_ID": "1997-051DY", "EPOCH": "2025-12-10T04:20:07.855008", "MEAN_MOTION": 14.42258512, "ECCENTRICITY": 0.0055658, "INCLINATION": 86.2123, "RA_OF_ASC_NODE": 333.6661, "ARG_OF_PERICENTER": 101.9259, "MEAN_ANOMALY": 258.8189, "EPHEMERIS_TYPE": 0, "CLASSIFICATION_TYPE": "U", "NORAD_CAT_ID": 34145, "ELEMENT_SET_NO": 999, "REV_AT_EPOCH": 87601, "BSTAR": 0.0015884, "MEAN_MOTION_DOT": 5.356e-05, "MEAN_MOTION_DDOT": 0}, "tle": {"line1": "1 34145U 97051DY  25344.18064647  .00005356  00000+0  15884-2 0  9999", "line2": "2 34145  86.2123 333.6661 0055658 101.9259 258.8189 14.42258512876012"}}, "geometry": {"type": "Point", "coordinates": [148.0137580949763, 53.228206881907916]}}, {"type": "Feature", "properties": {"norad_id": 34146, "name": "IRIDIUM 33 DEB", "group": "iridium-33-debris", "lat": 85.55849717600573, "lon": 113.57329728241952, "alt_km": 733.8062185733106, "timestamp": "2025-12-11T10:53:16.273975+00:00", "meta": {"OBJECT_NAME": "IRIDIUM 33 DEB", "OBJECT_ID": "1997-051DZ", "EPOCH": "2025-12-11T00:47:22.560000", "MEAN_MOTION": 14.49028773, "ECCENTRICITY": 0.0025351, "INCLINATION": 86.2839, "RA_OF_ASC_NODE": 350.5544, "ARG_OF_PERICENTER": 227.6894, "MEAN_ANOMALY": 191.4484, "EPHEMERIS_TYPE": 0, "CLASSIFICATION_TYPE": "U", "NORAD_CAT_ID": 34146, "ELEMENT_SET_NO": 999, "REV_AT_EPOCH": 88082, "BSTAR": 0.001422, "MEAN_MOTION_DOT": 5.436e-05, "MEAN_MOTION_DDOT": 0}, "tle": {"line1": "1 34146U 97051DZ  25345.03290000  .00005436  00000+0  14220-2 0  9991", "line2": "2 34146  86.2839 350.5544 0025351 227.6894 191.4484 14.49028773880828"}}, "geometry": {"type": "Point", "coordinates": [113.57329728241952, 85.55849717600573]}}, {"type": "Feature", "properties": {"norad_id": 34159, "name": "IRIDIUM 33 DEB", "group": "iridium-33-debris", "lat": -35.986293702891004, "lon": -128.5541163901697, "alt_km": 765.5133883225526, "timestamp": "2025-12-11T10:53:16.273986+00:00", "meta": {"OBJECT_NAME": "IRIDIUM 33 DEB", "OBJECT_ID": "1997-051EN", "EPOCH": "2025-12-11T04:52:32.969568", "MEAN_MOTION": 14.38486874, "ECCENTRICITY": 0.0025994, "INCLINATION": 86.3509, "RA_OF_ASC_NODE": 48.8965, "ARG_OF_PERICENTER": 293.3015, "MEAN_ANOMALY": 66.5448, "EPHEMERIS_TYPE": 0, "CLASSIFICATION_TYPE": "U", "NORAD_CAT_ID": 34159, "ELEMENT_SET_NO": 999, "REV_AT_EPOCH": 87937, "BSTAR": 0.00056854, "MEAN_MOTION_DOT": 1.761e-05, "MEAN_MOTION_DDOT": 0}, "tle": {"line1": "1 34159U 97051EN  25345.20315937  .00001761  00000+0  56854-3 0  9998", "line2": "2 34159  86.3509  48.8965 0025994 293.3015  66.5448 14.38486874879377"}}, "geometry": {"type": "Point", "coordinates": [-128.5541163901697, -35.986293702891004]}}, {"type": "Feature", "properties": {"norad_id": 34350, "name": "IRIDIUM 33 DEB", "group": "iridium-33-debris", "lat": -33.45381940541921, "lon": -174.20250847376883, "alt_km": 742.6214360942895, "timestamp": "2025-12-11T10:53:16.273997+00:00", "meta": {"OBJECT_NAME": "IRIDIUM 33 DEB", "OBJECT_ID": "1997-051ES", "EPOCH": "2025-12-11T01:50:46.546368", "MEAN_MOTION": 14.45380646, "ECCENTRICITY": 0.0022689, "INCLINATION": 86.3276, "RA_OF_ASC_NODE": 3.5288, "ARG_OF_PERICENTER": 140.3676, "MEAN_ANOMALY": 273.777, "EPHEMERIS_TYPE": 0, "CLASSIFICATION_TYPE": "U", "NORAD_CAT_ID": 34350, "ELEMENT_SET_NO": 999, "REV_AT_EPOCH": 88269, "BSTAR": 0.0004553, "MEAN_MOTION_DOT": 1.625e-05, "MEAN_MOTION_DDOT": 0}, "tle": {"line1": "1 34350U 97051ES  25345.07692762  .00001625  00000+0  45530-3 0  9998", "line2": "2 34350  86.3276   3.5288 0022689 140.3676 273.7770 14.45380646882696"}}, "geometry": {"type": "Point", "coordinates": [-174.20250847376883, -33.45381940541921]}}, {"type": "Feature", "properties": {"norad_id": 34366, "name": "IRIDIUM 33 DEB", "group": "iridium-33-debris", "lat": 38.765878777520925, "lon": -133.05024207576275, "alt_km": 693.8711740944427, "timestamp": "2025-12-11T10:53:16.274007+00:00", "meta": {"OBJECT_NAME": "IRIDIUM 33 DEB", "OBJECT_ID": "1997-051FJ", "EPOCH": "2025-12-11T05:33:55.950912", "MEAN_MOTION": 14.54036307, "ECCENTRICITY": 0.0022295, "INCLINATION": 86.3694, "RA_OF_ASC_NODE": 49.9688, "ARG_OF_PERICENTER": 144.5199, "MEAN_ANOMALY": 276.4662, "EPHEMERIS_TYPE": 0, "CLASSIFICATION_TYPE": "U", "NORAD_CAT_ID": 34366, "ELEMENT_SET_NO": 999, "REV_AT_EPOCH": 88160, "BSTAR": 0.0016788, "MEAN_MOTION_DOT": 7.125e-05, "MEAN_MOTION_DDOT": 0}, "tle": {"line1": "1 34366U 97051FJ  25345.23189758  .00007125  00000+0  16788-2 0  9992", "line2": "2 34366  86.3694  49.9688 0022295 144.5199 276.4662 14.54036307881606"}}, "geometry": {"type": "Point", "coordinates": [-133.05024207576275, 38.765878777520925]}}]}